start=new Date('2022-04-20T00:00:00.000Z').valueOf();
sats=[{"CENTER_NAME":"EARTH","OBJECT_ID":"2021-044R","TIME_SYSTEM":"UTC","APOAPSIS":"548.178","EPOCH":"2022-04-19T10:59:06.198432","BSTAR":"0.00054380000000","ARG_OF_PERICENTER":"81.0225","OBJECT_TYPE":"PAYLOAD","TLE_LINE1":"1 48653U 21044R   22109.45771063  .00007831  00000-0  54380-3 0  9996","RA_OF_ASC_NODE":"17.2899","OBJECT_NAME":"STARLINK-2720","REF_FRAME":"TEME","MEAN_MOTION":"15.06414904","MEAN_ANOMALY":"279.0929","PERIAPSIS":"546.157","CLASSIFICATION_TYPE":"U","DECAY_DATE":null,"SEMIMAJOR_AXIS":"6925.303","COUNTRY_CODE":"US","PERIOD":"95.591","MEAN_ELEMENT_THEORY":"SGP4","MEAN_MOTION_DOT":"0.00007831","LAUNCH_DATE":"2021-05-26","MEAN_MOTION_DDOT":"0.0000000000000","REV_AT_EPOCH":"4964","INCLINATION":"53.0558","GP_ID":"201627982","FILE":"3408368","EPHEMERIS_TYPE":"0","SITE":"AFETR","RCS_SIZE":"LARGE","TLE_LINE2":"2 48653  53.0558  17.2899 0001459  81.0225 279.0929 15.06414904 49642","ELEMENT_SET_NO":"999","NORAD_CAT_ID":"48653","ECCENTRICITY":"0.00014590"},{"APOAPSIS":"548.217","TIME_SYSTEM":"UTC","OBJECT_ID":"2021-044S","CENTER_NAME":"EARTH","BSTAR":"0.00014951000000","EPOCH":"2022-04-19T17:15:57.083616","ARG_OF_PERICENTER":"87.9818","REF_FRAME":"TEME","OBJECT_NAME":"STARLINK-2651","TLE_LINE1":"1 48654U 21044S   22109.71941069  .00001946  00000-0  14951-3 0  9992","OBJECT_TYPE":"PAYLOAD","RA_OF_ASC_NODE":"16.1167","MEAN_ANOMALY":"272.1338","MEAN_MOTION":"15.06402763","PERIAPSIS":"546.193","CLASSIFICATION_TYPE":"U","COUNTRY_CODE":"US","SEMIMAJOR_AXIS":"6925.340","DECAY_DATE":null,"MEAN_ELEMENT_THEORY":"SGP4","PERIOD":"95.592","MEAN_MOTION_DOT":"0.00001946","MEAN_MOTION_DDOT":"0.0000000000000","LAUNCH_DATE":"2021-05-26","REV_AT_EPOCH":"5058","GP_ID":"201632622","INCLINATION":"53.0558","RCS_SIZE":"LARGE","EPHEMERIS_TYPE":"0","FILE":"3408459","SITE":"AFETR","ECCENTRICITY":"0.00014610","TLE_LINE2":"2 48654  53.0558  16.1167 0001461  87.9818 272.1338 15.06402763 50588","ELEMENT_SET_NO":"999","NORAD_CAT_ID":"48654"},{"REF_FRAME":"TEME","TLE_LINE1":"1 48655U 21044T   22109.45034209  .00016916  00000-0  11513-2 0  9996","RA_OF_ASC_NODE":"17.3346","OBJECT_TYPE":"PAYLOAD","OBJECT_NAME":"STARLINK-2657","ARG_OF_PERICENTER":"75.8304","EPOCH":"2022-04-19T10:48:29.556576","BSTAR":"0.00115130000000","TIME_SYSTEM":"UTC","APOAPSIS":"548.188","CENTER_NAME":"EARTH","OBJECT_ID":"2021-044T","SEMIMAJOR_AXIS":"6925.297","COUNTRY_CODE":"US","DECAY_DATE":null,"CLASSIFICATION_TYPE":"U","PERIAPSIS":"546.135","MEAN_ANOMALY":"284.2849","MEAN_MOTION":"15.06416961","LAUNCH_DATE":"2021-05-26","MEAN_MOTION_DDOT":"0.0000000000000","MEAN_MOTION_DOT":"0.00016916","MEAN_ELEMENT_THEORY":"SGP4","PERIOD":"95.591","ECCENTRICITY":"0.00014820","TLE_LINE2":"2 48655  53.0547  17.3346 0001482  75.8304 284.2849 15.06416961 49649","NORAD_CAT_ID":"48655","ELEMENT_SET_NO":"999","RCS_SIZE":"LARGE","SITE":"AFETR","FILE":"3408368","EPHEMERIS_TYPE":"0","INCLINATION":"53.0547","GP_ID":"201626480","REV_AT_EPOCH":"4964"},{"REV_AT_EPOCH":"4964","GP_ID":"201626730","INCLINATION":"53.0567","SITE":"AFETR","FILE":"3408368","EPHEMERIS_TYPE":"0","RCS_SIZE":"LARGE","TLE_LINE2":"2 48656  53.0567  17.3421 0001625  73.0138 287.1029 15.06421380 49643","NORAD_CAT_ID":"48656","ELEMENT_SET_NO":"999","ECCENTRICITY":"0.00016250","PERIOD":"95.591","MEAN_ELEMENT_THEORY":"SGP4","MEAN_MOTION_DOT":"0.00016005","MEAN_MOTION_DDOT":"0.0000000000000","LAUNCH_DATE":"2021-05-26","MEAN_MOTION":"15.06421380","MEAN_ANOMALY":"287.1029","PERIAPSIS":"546.023","CLASSIFICATION_TYPE":"U","DECAY_DATE":null,"COUNTRY_CODE":"US","SEMIMAJOR_AXIS":"6925.283","OBJECT_ID":"2021-044U","CENTER_NAME":"EARTH","TIME_SYSTEM":"UTC","APOAPSIS":"548.273","BSTAR":"0.00109030000000","EPOCH":"2022-04-19T10:43:10.937568","ARG_OF_PERICENTER":"73.0138","OBJECT_NAME":"STARLINK-2701","OBJECT_TYPE":"PAYLOAD","TLE_LINE1":"1 48656U 21044U   22109.44665437  .00016005  00000-0  10903-2 0  9990","RA_OF_ASC_NODE":"17.3421","REF_FRAME":"TEME"},{"REV_AT_EPOCH":"4964","INCLINATION":"53.0563","GP_ID":"201627482","RCS_SIZE":"LARGE","EPHEMERIS_TYPE":"0","FILE":"3408368","SITE":"AFETR","ECCENTRICITY":"0.00023300","NORAD_CAT_ID":"48657","TLE_LINE2":"2 48657  53.0563  17.3604 0002330  70.4299 289.6942 15.06421429 49641","ELEMENT_SET_NO":"999","MEAN_ELEMENT_THEORY":"SGP4","PERIOD":"95.591","MEAN_MOTION_DOT":"0.00004941","LAUNCH_DATE":"2021-05-26","MEAN_MOTION_DDOT":"0.0000000000000","MEAN_ANOMALY":"289.6942","MEAN_MOTION":"15.06421429","PERIAPSIS":"545.534","CLASSIFICATION_TYPE":"U","SEMIMAJOR_AXIS":"6925.283","COUNTRY_CODE":"US","DECAY_DATE":null,"APOAPSIS":"548.761","TIME_SYSTEM":"UTC","CENTER_NAME":"EARTH","OBJECT_ID":"2021-044V","EPOCH":"2022-04-19T10:37:52.600224","BSTAR":"0.00035016000000","ARG_OF_PERICENTER":"70.4299","REF_FRAME":"TEME","TLE_LINE1":"1 48657U 21044V   22109.44296991  .00004941  00000-0  35016-3 0  9995","RA_OF_ASC_NODE":"17.3604","OBJECT_TYPE":"PAYLOAD","OBJECT_NAME":"STARLINK-2734"},{"PERIAPSIS":"546.089","MEAN_ANOMALY":"298.8013","MEAN_MOTION":"15.06415382","COUNTRY_CODE":"US","SEMIMAJOR_AXIS":"6925.301","DECAY_DATE":null,"CLASSIFICATION_TYPE":"U","BSTAR":"0.00007577100000","EPOCH":"2022-04-19T10:32:34.078848","TIME_SYSTEM":"UTC","APOAPSIS":"548.244","OBJECT_ID":"2021-044W","CENTER_NAME":"EARTH","REF_FRAME":"TEME","OBJECT_NAME":"STARLINK-2647","TLE_LINE1":"1 48658U 21044W   22109.43928332  .00000848  00000-0  75771-4 0  9991","RA_OF_ASC_NODE":"17.3804","OBJECT_TYPE":"PAYLOAD","ARG_OF_PERICENTER":"61.3132","INCLINATION":"53.0558","GP_ID":"201628233","REV_AT_EPOCH":"4964","ECCENTRICITY":"0.00015560","ELEMENT_SET_NO":"999","TLE_LINE2":"2 48658  53.0558  17.3804 0001556  61.3132 298.8013 15.06415382 49644","NORAD_CAT_ID":"48658","RCS_SIZE":"LARGE","EPHEMERIS_TYPE":"0","FILE":"3408368","SITE":"AFETR","MEAN_MOTION_DOT":"0.00000848","MEAN_ELEMENT_THEORY":"SGP4","PERIOD":"95.591","MEAN_MOTION_DDOT":"0.0000000000000","LAUNCH_DATE":"2021-05-26"},{"TIME_SYSTEM":"UTC","APOAPSIS":"548.091","CENTER_NAME":"EARTH","OBJECT_ID":"2021-044X","EPOCH":"2022-04-19T18:24:58.843872","BSTAR":"-0.00011013000000","ARG_OF_PERICENTER":"52.9209","REF_FRAME":"TEME","RA_OF_ASC_NODE":"15.9033","TLE_LINE1":"1 48659U 21044X   22109.76734773 -.00001920  00000-0 -11013-3 0  9994","OBJECT_TYPE":"PAYLOAD","OBJECT_NAME":"STARLINK-2717","MEAN_ANOMALY":"307.1888","MEAN_MOTION":"15.06381408","PERIAPSIS":"546.450","CLASSIFICATION_TYPE":"U","SEMIMAJOR_AXIS":"6925.406","COUNTRY_CODE":"US","DECAY_DATE":null,"MEAN_ELEMENT_THEORY":"SGP4","PERIOD":"95.593","MEAN_MOTION_DOT":"-0.00001920","LAUNCH_DATE":"2021-05-26","MEAN_MOTION_DDOT":"0.0000000000000","REV_AT_EPOCH":"5053","INCLINATION":"53.0558","GP_ID":"201632707","RCS_SIZE":"LARGE","FILE":"3408444","SITE":"AFETR","EPHEMERIS_TYPE":"0","ECCENTRICITY":"0.00011850","TLE_LINE2":"2 48659  53.0558  15.9033 0001185  52.9209 307.1888 15.06381408 50537","NORAD_CAT_ID":"48659","ELEMENT_SET_NO":"999"},{"BSTAR":"0.00050822000000","EPOCH":"2022-04-19T18:19:38.702496","TIME_SYSTEM":"UTC","APOAPSIS":"548.131","OBJECT_ID":"2021-044Y","CENTER_NAME":"EARTH","REF_FRAME":"TEME","OBJECT_NAME":"STARLINK-2688","RA_OF_ASC_NODE":"15.9252","TLE_LINE1":"1 48660U 21044Y   22109.76364239  .00007300  00000-0  50822-3 0  9999","OBJECT_TYPE":"PAYLOAD","ARG_OF_PERICENTER":"80.4665","PERIAPSIS":"546.190","MEAN_ANOMALY":"279.6482","MEAN_MOTION":"15.06417327","COUNTRY_CODE":"US","SEMIMAJOR_AXIS":"6925.295","DECAY_DATE":null,"CLASSIFICATION_TYPE":"U","MEAN_MOTION_DOT":"0.00007300","MEAN_ELEMENT_THEORY":"SGP4","PERIOD":"95.591","MEAN_MOTION_DDOT":"0.0000000000000","LAUNCH_DATE":"2021-05-26","GP_ID":"201632729","INCLINATION":"53.0550","REV_AT_EPOCH":"5053","ECCENTRICITY":"0.00014010","TLE_LINE2":"2 48660  53.0550  15.9252 0001401  80.4665 279.6482 15.06417327 50530","ELEMENT_SET_NO":"999","NORAD_CAT_ID":"48660","RCS_SIZE":"LARGE","FILE":"3408446","EPHEMERIS_TYPE":"0","SITE":"AFETR"},{"TIME_SYSTEM":"UTC","APOAPSIS":"548.378","OBJECT_ID":"2021-044Z","CENTER_NAME":"EARTH","BSTAR":"0.00033856000000","EPOCH":"2022-04-19T10:23:16.851552","ARG_OF_PERICENTER":"58.0247","REF_FRAME":"TEME","OBJECT_NAME":"STARLINK-2708","RA_OF_ASC_NODE":"7.4106","TLE_LINE1":"1 48661U 21044Z   22109.43283393  .00004767  00000-0  33856-3 0  9997","OBJECT_TYPE":"PAYLOAD","MEAN_ANOMALY":"302.0914","MEAN_MOTION":"15.06419439","PERIAPSIS":"545.930","CLASSIFICATION_TYPE":"U","COUNTRY_CODE":"US","SEMIMAJOR_AXIS":"6925.289","DECAY_DATE":null,"MEAN_ELEMENT_THEORY":"SGP4","PERIOD":"95.591","MEAN_MOTION_DOT":"0.00004767","MEAN_MOTION_DDOT":"0.0000000000000","LAUNCH_DATE":"2021-05-26","REV_AT_EPOCH":"4978","INCLINATION":"53.0535","GP_ID":"201627983","RCS_SIZE":"LARGE","SITE":"AFETR","FILE":"3408368","EPHEMERIS_TYPE":"0","ECCENTRICITY":"0.00017680","TLE_LINE2":"2 48661  53.0535   7.4106 0001768  58.0247 302.0914 15.06419439 49783","NORAD_CAT_ID":"48661","ELEMENT_SET_NO":"999"},{"TLE_LINE2":"2 48662  53.0566   8.3174 0001612  69.4684 290.6478 15.06395426 49755","ELEMENT_SET_NO":"999","NORAD_CAT_ID":"48662","ECCENTRICITY":"0.00016120","FILE":"3408368","SITE":"AFETR","EPHEMERIS_TYPE":"0","RCS_SIZE":"LARGE","INCLINATION":"53.0566","GP_ID":"201627733","REV_AT_EPOCH":"4975","LAUNCH_DATE":"2021-05-26","MEAN_MOTION_DDOT":"0.0000000000000","MEAN_MOTION_DOT":"0.00002284","PERIOD":"95.592","MEAN_ELEMENT_THEORY":"SGP4","DECAY_DATE":null,"SEMIMAJOR_AXIS":"6925.363","COUNTRY_CODE":"US","CLASSIFICATION_TYPE":"U","PERIAPSIS":"546.111","MEAN_MOTION":"15.06395426","MEAN_ANOMALY":"290.6478","TLE_LINE1":"1 48662U 21044AA  22109.23010812  .00002284  00000-0  17219-3 0  9997","OBJECT_TYPE":"PAYLOAD","RA_OF_ASC_NODE":"8.3174","OBJECT_NAME":"STARLINK-2726","REF_FRAME":"TEME","ARG_OF_PERICENTER":"69.4684","EPOCH":"2022-04-19T05:31:21.341568","BSTAR":"0.00017219000000","CENTER_NAME":"EARTH","OBJECT_ID":"2021-044AA","APOAPSIS":"548.344","TIME_SYSTEM":"UTC"}];
